{
  "type": "FeatureCollection",
  "features": [
    {
      "type": "Feature",
      "properties": {
        "norad_id": 29937,
        "name": "FENGYUN 1C DEB",
        "group": "fengyun-1c-debris",
        "lat": 4.251011778513332,
        "lon": -171.46510912065207,
        "alt_km": 902.2354110219403,
        "timestamp": "2025-12-12T20:43:07.307509+00:00",
        "meta_object_name": "FENGYUN 1C DEB",
        "meta_object_id": "1999-025JK",
        "meta_epoch": "2025-12-12T01:20:18.123648",
        "meta_mean_motion": 14.04361507,
        "meta_eccentricity": 0.00324225,
        "meta_inclination": 98.8031,
        "meta_ra_of_asc_node": 7.0923,
        "meta_arg_of_pericenter": 23.5679,
        "meta_mean_anomaly": 31.5654,
        "meta_ephemeris_type": 0,
        "meta_classification_type": "U",
        "meta_norad_cat_id": 29937,
        "meta_element_set_no": 999,
        "meta_rev_at_epoch": 96926,
        "meta_bstar": 4.8966447e-05,
        "meta_mean_motion_dot": 3.6e-07,
        "meta_mean_motion_ddot": 0,
        "tle_line1": "1 29937U 99025JK  25346.05576532  .00000036  00000+0  48966-4 0  9993",
        "tle_line2": "2 29937  98.8031   7.0923 0032422  23.5679  31.5654 14.04361507969264"
      },
      "geometry": {
        "type": "Point",
        "coordinates": [
          -171.46510912065207,
          4.251011778513332
        ]
      }
    },
    {
      "type": "Feature",
      "properties": {
        "norad_id": 29938,
        "name": "FENGYUN 1C DEB",
        "group": "fengyun-1c-debris",
        "lat": 74.52505293193562,
        "lon": -169.09347872956823,
        "alt_km": 882.0273583472681,
        "timestamp": "2025-12-12T20:43:07.307519+00:00",
        "meta_object_name": "FENGYUN 1C DEB",
        "meta_object_id": "1999-025JL",
        "meta_epoch": "2025-12-12T05:10:42.255840",
        "meta_mean_motion": 14.07457757,
        "meta_eccentricity": 0.00328835,
        "meta_inclination": 98.8023,
        "meta_ra_of_asc_node": 336.2428,
        "meta_arg_of_pericenter": 312.2964,
        "meta_mean_anomaly": 111.2547,
        "meta_ephemeris_type": 0,
        "meta_classification_type": "U",
        "meta_norad_cat_id": 29938,
        "meta_element_set_no": 999,
        "meta_rev_at_epoch": 97049,
        "meta_bstar": 0.00030212066,
        "meta_mean_motion_dot": 4.68e-06,
        "meta_mean_motion_ddot": 0,
        "tle_line1": "1 29938U 99025JL  25346.21576685  .00000468  00000+0  30212-3 0  9994",
        "tle_line2": "2 29938  98.8023 336.2428 0032883 312.2964 111.2547 14.07457757970499"
      },
      "geometry": {
        "type": "Point",
        "coordinates": [
          -169.09347872956823,
          74.52505293193562
        ]
      }
    },
    {
      "type": "Feature",
      "properties": {
        "norad_id": 29939,
        "name": "FENGYUN 1C DEB",
        "group": "fengyun-1c-debris",
        "lat": 80.07244717495973,
        "lon": -132.40647442213137,
        "alt_km": 809.5233935248507,
        "timestamp": "2025-12-12T20:43:07.307529+00:00",
        "meta_object_name": "FENGYUN 1C DEB",
        "meta_object_id": "1999-025JM",
        "meta_epoch": "2025-12-12T06:44:32.137728",
        "meta_mean_motion": 14.12084461,
        "meta_eccentricity": 0.00669423,
        "meta_inclination": 98.7099,
        "meta_ra_of_asc_node": 345.8815,
        "meta_arg_of_pericenter": 139.8522,
        "meta_mean_anomaly": 236.7062,
        "meta_ephemeris_type": 0,
        "meta_classification_type": "U",
        "meta_norad_cat_id": 29939,
        "meta_element_set_no": 999,
        "meta_rev_at_epoch": 97454,
        "meta_bstar": 8.9551441e-05,
        "meta_mean_motion_dot": 1.25e-06,
        "meta_mean_motion_ddot": 0,
        "tle_line1": "1 29939U 99025JM  25346.28092752  .00000125  00000+0  89551-4 0  9991",
        "tle_line2": "2 29939  98.7099 345.8815 0066942 139.8522 236.7062 14.12084461974543"
      },
      "geometry": {
        "type": "Point",
        "coordinates": [
          -132.40647442213137,
          80.07244717495973
        ]
      }
    },
    {
      "type": "Feature",
      "properties": {
        "norad_id": 29940,
        "name": "FENGYUN 1C DEB",
        "group": "fengyun-1c-debris",
        "lat": -78.74655238760785,
        "lon": 126.85651739346868,
        "alt_km": 888.2158120652448,
        "timestamp": "2025-12-12T20:43:07.307540+00:00",
        "meta_object_name": "FENGYUN 1C DEB",
        "meta_object_id": "1999-025JN",
        "meta_epoch": "2025-12-11T23:27:51.661728",
        "meta_mean_motion": 14.18818118,
        "meta_eccentricity": 0.0074718,
        "meta_inclination": 98.6214,
        "meta_ra_of_asc_node": 355.6787,
        "meta_arg_of_pericenter": 102.0012,
        "meta_mean_anomaly": 319.6211,
        "meta_ephemeris_type": 0,
        "meta_classification_type": "U",
        "meta_norad_cat_id": 29940,
        "meta_element_set_no": 999,
        "meta_rev_at_epoch": 97477,
        "meta_bstar": 0.00084961,
        "meta_mean_motion_dot": 1.775e-05,
        "meta_mean_motion_ddot": 0,
        "tle_line1": "1 29940U 99025JN  25345.97768127  .00001775  00000+0  84961-3 0  9995",
        "tle_line2": "2 29940  98.6214 355.6787 0074718 102.0012 319.6211 14.18818118974778"
      },
      "geometry": {
        "type": "Point",
        "coordinates": [
          126.85651739346868,
          -78.74655238760785
        ]
      }
    },
    {
      "type": "Feature",
      "properties": {
        "norad_id": 29942,
        "name": "FENGYUN 1C DEB",
        "group": "fengyun-1c-debris",
        "lat": 50.68095174940039,
        "lon": -116.60510030915454,
        "alt_km": 815.0269665296828,
        "timestamp": "2025-12-12T20:43:07.307550+00:00",
        "meta_object_name": "FENGYUN 1C DEB",
        "meta_object_id": "1999-025JQ",
        "meta_epoch": "2025-12-12T03:19:41.978784",
        "meta_mean_motion": 14.30409328,
        "meta_eccentricity": 0.00487847,
        "meta_inclination": 98.6369,
        "meta_ra_of_asc_node": 51.9811,
        "meta_arg_of_pericenter": 277.8276,
        "meta_mean_anomaly": 81.737,
        "meta_ephemeris_type": 0,
        "meta_classification_type": "U",
        "meta_norad_cat_id": 29942,
        "meta_element_set_no": 999,
        "meta_rev_at_epoch": 97860,
        "meta_bstar": 0.001090824,
        "meta_mean_motion_dot": 2.83e-05,
        "meta_mean_motion_ddot": 0,
        "tle_line1": "1 29942U 99025JQ  25346.13868031  .00002830  00000+0  10908-2 0  9993",
        "tle_line2": "2 29942  98.6369  51.9811 0048784 277.8276  81.7370 14.30409328978604"
      },
      "geometry": {
        "type": "Point",
        "coordinates": [
          -116.60510030915454,
          50.68095174940039
        ]
      }
    },
    {
      "type": "Feature",
      "properties": {
        "norad_id": 29943,
        "name": "FENGYUN 1C DEB",
        "group": "fengyun-1c-debris",
        "lat": 67.00627605410365,
        "lon": -26.604426865515162,
        "alt_km": 877.3377575689929,
        "timestamp": "2025-12-12T20:43:07.307560+00:00",
        "meta_object_name": "FENGYUN 1C DEB",
        "meta_object_id": "1999-025JR",
        "meta_epoch": "2025-12-12T00:12:40.260384",
        "meta_mean_motion": 14.09670984,
        "meta_eccentricity": 0.0034867,
        "meta_inclination": 98.7269,
        "meta_ra_of_asc_node": 353.7883,
        "meta_arg_of_pericenter": 229.1489,
        "meta_mean_anomaly": 185.776,
        "meta_ephemeris_type": 0,
        "meta_classification_type": "U",
        "meta_norad_cat_id": 29943,
        "meta_element_set_no": 999,
        "meta_rev_at_epoch": 97296,
        "meta_bstar": 3.6662e-05,
        "meta_mean_motion_dot": 2.2e-07,
        "meta_mean_motion_ddot": 0,
        "tle_line1": "1 29943U 99025JR  25346.00879931  .00000022  00000+0  36662-4 0  9999",
        "tle_line2": "2 29943  98.7269 353.7883 0034867 229.1489 185.7760 14.09670984972965"
      },
      "geometry": {
        "type": "Point",
        "coordinates": [
          -26.604426865515162,
          67.00627605410365
        ]
      }
    },
    {
      "type": "Feature",
      "properties": {
        "norad_id": 29944,
        "name": "FENGYUN 1C DEB",
        "group": "fengyun-1c-debris",
        "lat": -80.20268120623682,
        "lon": -12.393935243414695,
        "alt_km": 525.9943694077256,
        "timestamp": "2025-12-12T20:43:07.307570+00:00",
        "meta_object_name": "FENGYUN 1C DEB",
        "meta_object_id": "1999-025JS",
        "meta_epoch": "2025-12-11T07:58:21.240192",
        "meta_mean_motion": 14.87475969,
        "meta_eccentricity": 0.0166516,
        "meta_inclination": 99.0023,
        "meta_ra_of_asc_node": 279.2255,
        "meta_arg_of_pericenter": 236.5662,
        "meta_mean_anomaly": 121.9533,
        "meta_ephemeris_type": 0,
        "meta_classification_type": "U",
        "meta_norad_cat_id": 29944,
        "meta_element_set_no": 999,
        "meta_rev_at_epoch": 433,
        "meta_bstar": 0.0011660402,
        "meta_mean_motion_dot": 0.00013588,
        "meta_mean_motion_ddot": 0,
        "tle_line1": "1 29944U 99025JS  25345.33219028  .00013588  00000+0  11660-2 0  9990",
        "tle_line2": "2 29944  99.0023 279.2255 0166516 236.5662 121.9533 14.87475969  4334"
      },
      "geometry": {
        "type": "Point",
        "coordinates": [
          -12.393935243414695,
          -80.20268120623682
        ]
      }
    }
  ]
}